{"fetched_at":"2026-03-29T16:36:15Z","count":15609,"tles":[{"name":"STARLINK-1234","line1":"1 45190U 20012N   26087.81799976  .00068121  00000+0  66180-3 0  9994","line2":"2 45190  53.0394 231.5063 0006372 353.3697   6.7232 15.65685685338873","category":"Starlink"}]}