{
  "norad_id": 45190,
  "name": "STARLINK-1234",
  "history": [
    {
      "epoch": "2026-03-28T19:37:55.179264",
      "apogee_km": 375.56865208527597,
      "perigee_km": 366.9662661259672,
      "latitude_deg": 52.05119694662537,
      "longitude_deg": -142.4720230398234,
      "semi_major_axis_km": 6749.404459105622,
      "eccentricity": 0.00063727,
      "inclination_deg": 53.0394,
      "raan_deg": 231.5063,
      "arg_perigee_deg": 353.3697,
      "mean_anomaly_deg": 6.7232,
      "mean_motion_rev_day": 15.65685685
    }
  ]
}